48218,ONEWEB-0196,2021,109.55,148.0,+,87.89,Active,1,LEO,Russia,UK,Commercial,Communications,Soyuz,1 48218U 21031J   24244.98468409 -.00000161  00000+0 -46972-3 0  9994,2 48218  87.8926  59.8112 0001766  93.1571 266.9761 13.14503450162278,13.1450345,0.0001766,LEO
48219,ONEWEB-0183,2021,109.55,148.0,+,87.89,Active,1,LEO,Russia,UK,Commercial,Communications,Soyuz,1 48219U 21031K   24244.88319633  .00000145  00000+0  35775-3 0  9997,2 48219  87.8928  59.8473 0001912  87.4285 272.7063 13.14500192162362,13.14500192,0.0001912,LEO
48220,ONEWEB-0185,2021,109.55,148.0,+,87.89,Active,1,LEO,Russia,UK,Commercial,Communications,Soyuz,1 48220U 21031L   24244.90935399 -.00000118  00000+0 -35219-3 0  9990,2 48220  87.8925  59.8138 0001955  88.7039 271.4315 13.14504307162297,13.14504307,0.0001955,LEO
48221,ONEWEB-0187,2021,109.55,148.0,+,87.89,Active,1,LEO,Russia,UK,Commercial,Communications,Soyuz,1 48221U 21031M   24244.87923679  .00000135  00000+0  32963-3 0  9995,2 48221  87.8927  59.8534 0001922  89.3386 270.7964 13.14500578162306,13.14500578,0.0001922,LEO
48222,ONEWEB-0192,2021,109.55,148.0,+,87.89,Active,1,LEO,Russia,UK,Commercial,Communications,Soyuz,1 48222U 21031N   24244.93552805  .00000211  00000+0  53379-3 0  9991,2 48222  87.8925  59.8396 0001796  95.0591 265.0744 13.14500213162222,13.14500213,0.0001796,LEO
48223,ONEWEB-0219,2021,109.55,148.0,+,87.89,Active,1,LEO,Russia,UK,Commercial,Communications,Soyuz,1 48223U 21031P   24244.91491313 -.00000167  00000+0 -48481-3 0  9996,2 48223  87.8925  59.8175 0001928  90.7374 269.3977 13.14504876162422,13.14504876,0.0001928,LEO
48224,ONEWEB-0202,2021,109.55,148.0,+,87.89,Active,1,LEO,Russia,UK,Commercial,Communications,Soyuz,1 48224U 21031Q   24245.20035426 -.00000110  00000+0 -33171-3 0  9997,2 48224  87.8930  59.7787 0002256 111.6876 248.4494 13.14499922162452,13.14499922,0.0002256,LEO
48225,ONEWEB-0204,2021,109.55,148.0,+,87.89,Active,1,LEO,Russia,UK,Commercial,Communications,Soyuz,1 48225U 21031R   24244.92997005  .00000156  00000+0  38628-3 0  9996,2 48225  87.8923  59.8450 0001807  79.1609 280.9724 13.14504131162306,13.14504131,0.0001807,LEO
